OBJECT_NAME,OBJECT_ID,EPOCH,MEAN_MOTION,ECCENTRICITY,INCLINATION,RA_OF_ASC_NODE,ARG_OF_PERICENTER,MEAN_ANOMALY,EPHEMERIS_TYPE,CLASSIFICATION_TYPE,NORAD_CAT_ID,ELEMENT_SET_NO,REV_AT_EPOCH,BSTAR,MEAN_MOTION_DOT,MEAN_MOTION_DDOT
ONEWEB-0572,2023-004M,2026-07-12T21:10:06.449376,13.17651466,.00020713,87.9136,0.7523,92.4139,267.7230,0,U,55151,999,17086,.93703874E-4,.49E-6,0
ONEWEB-0573,2023-004N,2026-07-12T21:54:40.544928,13.18687745,.00027572,87.9186,330.3518,99.2195,260.9249,0,U,55152,999,17308,-.3166905E-5,.12E-6,0
ONEWEB-0588,2023-004P,2026-07-12T21:44:59.310528,13.18686720,.00020501,87.9195,330.3512,93.0725,267.0642,0,U,55153,999,17308,-.30367895E-3,-.107E-5,0
ONEWEB-0598,2023-004Q,2026-07-12T22:45:57.139200,13.11418049,.00024721,87.8883,15.9380,100.3141,259.8265,0,U,55154,999,16927,.11602518E-2,.424E-5,0
ONEWEB-0599,2023-004R,2026-07-12T22:03:33.234624,13.17650433,.00018485,87.9141,0.7443,99.6348,260.4993,0,U,55155,999,17087,.52548974E-4,.33E-6,0
ONEWEB-0614,2023-004S,2026-07-12T22:38:37.223232,13.11418475,.00018007,87.8879,15.9476,82.1208,278.0124,0,U,55156,999,16921,.75815349E-3,.281E-5,0
ONEWEB-0616,2023-004T,2026-07-12T21:14:57.269184,13.17650706,.00016605,87.9142,0.7547,121.9050,238.2243,0,U,55157,999,17108,.74772756E-4,.42E-6,0
ONEWEB-0617,2023-004U,2026-07-12T22:21:30.765312,13.11419618,.00019391,87.8887,15.9427,77.5343,282.6002,0,U,55158,999,16923,-.60369787E-3,-.201E-5,0
ONEWEB-0618,2023-004V,2026-07-12T21:57:17.899200,15.13361758,.00118184,86.9104,167.1880,183.5251,176.5908,0,U,55159,999,18615,.12470489E-3,.226E-4,0
ONEWEB-0619,2023-004W,2026-07-12T22:01:07.457952,13.17650765,.00014361,87.9151,0.7316,86.8749,273.2547,0,U,55160,999,17098,.10739139E-3,.55E-6,0
ONEWEB-0620,2023-004X,2026-07-12T22:14:11.279616,13.11418476,.00021058,87.8874,15.9497,89.6085,270.5285,0,U,55161,999,16920,-.10514718E-2,-.36E-5,0
ONEWEB-0621,2023-004Y,2026-07-12T22:53:16.694880,13.11417011,.00017815,87.8892,15.9366,83.1348,276.9983,0,U,55162,999,16918,.1435753E-2,.522E-5,0
ONEWEB-0622,2023-004Z,2026-07-12T23:00:36.317952,13.11416118,.00022512,87.8888,15.9382,73.6591,286.4784,0,U,55163,999,16917,.1524322E-2,.553E-5,0
ONEWEB-0623,2023-004AA,2026-07-12T21:53:50.167680,13.17648283,.0001722,87.9135,0.7598,64.9953,295.1358,0,U,55164,999,17097,.28185096E-3,.122E-5,0
ONEWEB-0624,2023-004AB,2026-07-12T21:03:20.662272,13.12929060,.00016781,87.8950,345.4727,83.9262,276.2058,0,U,55165,999,17144,.1106715E-2,.414E-5,0
ONEWEB-0625,2023-004AC,2026-07-12T21:39:15.194880,13.17650315,.00016896,87.9138,0.7578,93.8337,266.2988,0,U,55166,999,17096,.79612973E-4,.44E-6,0
ONEWEB-0626,2023-004AD,2026-07-12T21:24:41.979456,13.17650536,.00021375,87.9140,0.7599,99.2252,260.9121,0,U,55167,999,17096,.32582011E-4,.26E-6,0
ONEWEB-0627,2023-004AE,2026-07-12T21:07:40.568160,13.17647913,.00018876,87.9140,0.7622,80.3955,279.7390,0,U,55168,999,17096,-.12035926E-3,-.34E-6,0
ONEWEB-0628,2023-004AF,2026-07-12T20:50:16.573632,13.12443234,.00015983,87.8964,345.5469,74.0934,286.0371,0,U,55169,999,17140,.827279E-3,.31E-5,0
ONEWEB-0629,2023-004AG,2026-07-12T22:21:47.329056,13.17650422,.00015,87.9137,0.7481,89.3039,270.8264,0,U,55170,999,17097,.12535919E-3,.62E-6,0
ONEWEB-0631,2023-004AH,2026-07-12T21:35:16.707552,13.18686407,.00023131,87.9189,330.3237,90.9627,269.1771,0,U,55171,999,17306,-.25600344E-4,.3E-7,0
ONEWEB-0709,2023-004AJ,2026-07-12T21:59:32.746272,13.11415795,.00026892,87.8881,15.9548,102.3229,257.8200,0,U,55172,999,16924,-.16328589E-2,-.566E-5,0
ONEWEB-0710,2023-004AK,2026-07-12T20:53:05.495136,13.17648058,.00019192,87.9142,0.7558,87.1011,273.0340,0,U,55173,999,17096,.19417074E-4,.2E-6,0
ONEWEB-0711,2023-004AL,2026-07-12T21:18:03.588192,13.11415449,.00019709,87.8881,15.9484,68.9097,291.2241,0,U,55174,999,16920,.1286761E-2,.469E-5,0
ONEWEB-0713,2023-004AM,2026-07-12T21:44:54.293280,13.11414742,.00018904,87.8882,15.9467,78.0765,282.0575,0,U,55175,999,16919,-.75400296E-3,-.255E-5,0
ONEWEB-0715,2023-004AN,2026-07-12T21:37:35.062464,13.11414179,.00025167,87.8888,15.9492,91.6194,268.5222,0,U,55176,999,16923,-.14573743E-3,-.39E-6,0
ONEWEB-0716,2023-004AP,2026-07-12T22:32:43.073952,13.17648594,.0001777,87.9142,0.7444,99.3518,260.7814,0,U,55177,999,17097,.2951331E-4,.24E-6,0
ONEWEB-0717,2023-004AQ,2026-07-12T22:08:25.200096,13.17650357,.00020879,87.9149,0.7377,73.3346,286.8014,0,U,55178,999,17102,.32565376E-3,.139E-5,0
ONEWEB-0719,2023-004AR,2026-07-12T22:22:59.540448,13.17651188,.00016639,87.9153,0.7161,94.6833,265.4489,0,U,55179,999,17097,.10429905E-3,.53E-6,0
ONEWEB-0530,2023-029A,2026-07-13T03:36:22.540896,13.20772864,.00018759,87.9176,269.2931,86.3610,273.7738,0,U,55796,999,16457,.16592373E-3,.8E-6,0
